0 FENGYUN 1C DEB
1 30927U 99025AZR 18331.89794490 +.00000694 +00000-0 +49819-3 0  9995
2 30927 099.2818 321.7478 0118001 227.9754 131.1317 13.97240711596775
0 FENGYUN 1C DEB
1 30930U 99025AZU 18332.17999660  .00000154  00000-0  68503-4 0  9990
2 30930  98.5274  45.0753 0118208 193.2030 195.5517 14.31974847615221
0 FENGYUN 1C DEB
1 30932U 99025AZW 18332.26430194  .00000752  00000-0  47214-3 0  9993
2 30932  98.9055 247.8468 0079672 352.8244 157.6522 14.05995704601923
0 FENGYUN 1C DEB
1 30933U 99025AZX 18331.78414782 +.00000918 +00000-0 +63699-3 0  9994
2 30933 099.0921 263.0303 0119427 305.5154 081.4182 13.98118406596830
0 FENGYUN 1C DEB
1 30933U 99025AZX 18332.78686427  .00000924  00000-0  64123-3 0  9992
2 30933  99.0920 264.0240 0119273 302.8022  88.2793 13.98120357597273
0 FENGYUN 1C DEB
1 30934U 99025AZY 18331.92795995 +.00000340 +00000-0 +47249-3 0  9991
2 30934 098.7475 144.0926 0358416 099.4307 264.7522 13.39782939572136
0 FENGYUN 1C DEB
1 30934U 99025AZY 18332.45070774  .00000356  00000-0  49284-3 0  9999
2 30934  98.7475 144.5450 0358406  98.1140 266.0805 13.39783481573260
0 FENGYUN 1C DEB
1 30936U 99025BAA 18332.09327633  .00000177  00000-0  10578-3 0  9995
2 30936  98.8680   2.3511 0050602 134.8827 292.1148 14.18471196606663
0 FENGYUN 1C DEB
1 30936U 99025BAA 18331.80910836 +.00000181 +00000-0 +10759-3 0  9992
2 30936 098.8680 002.0671 0050595 135.6821 281.0259 14.18471094606343
0 FENGYUN 1C DEB
1 30937U 99025BAB 18332.70925670 -.00000238  00000-0 -13934-3 0  9998
2 30937  99.3806 337.7713 0075249 201.9530 218.6598 13.94940335598874
0 FENGYUN 1C DEB
1 30938U 99025BAC 18331.38331015 +.00000113 +00000-0 +78052-4 0  9999
2 30938 098.8360 000.9458 0048314 164.7120 313.2673 14.16567908606763
0 FENGYUN 1C DEB
1 30938U 99025BAC 18332.07720323  .00000116  00000-0  79645-4 0  9992
2 30938  98.8359   1.6346 0048347 162.7446 251.8624 14.16568108607217
0 FENGYUN 1C DEB
1 30940U 99025BAE 18331.67510212 -.00000003 +00000-0 +24965-4 0  9995
2 30940 098.8703 030.5121 0042627 043.4702 108.1724 14.05122494599879
0 FENGYUN 1C DEB
1 30941U 99025BAF 18331.12981087 +.00000722 +00000-0 +40013-3 0  9996
2 30941 098.6870 222.1178 0038048 171.3455 188.8382 14.13978608601461
0 FENGYUN 1C DEB
1 30942U 99025BAG 18332.06867330  .00000015  00000-0  29554-4 0  9998
2 30942  98.8134   0.0432 0140674 232.8729 183.5253 14.12376866603311
0 FENGYUN 1C DEB
1 30944U 99025BAJ 18331.16954609 +.00000002 +00000-0 +14021-4 0  9995
2 30944 098.8137 220.5872 0156375 289.4499 229.6052 14.48584189618032
0 FENGYUN 1C DEB
1 30944U 99025BAJ 18332.66392382 -.00000013  00000-0  10587-4 0  9991
2 30944  98.8134 222.1473 0156341 284.9186 102.6737 14.48584261618356
0 FENGYUN 1C DEB
1 30945U 99025BAK 18332.50000016  .00000552  00000-0  32693-3 0  9993
2 30945  99.4005 172.8457 0038644  57.4193 332.8597 14.11760010600439
0 FENGYUN 1C DEB
1 30946U 99025BAL 18332.33964552  .00000195  00000-0  74723-4 0  9993
2 30946  99.0258 250.2288 0099810 226.6599 260.5214 14.39524272613009
0 FENGYUN 1C DEB
1 30947U 99025BAM 18331.84366529 +.00000113 +00000-0 +54627-4 0  9990
2 30947 098.8400 103.9479 0101460 241.7133 117.3784 14.34122300616015
0 FENGYUN 1C DEB
1 30950U 99025BAQ 18331.65914018 +.00009720 +00000-0 +45895-3 0  9994
2 30950 099.2160 218.8420 0036183 036.3353 324.0322 15.19144889252549
0 FENGYUN 1C DEB
1 30950U 99025BAQ 18332.18606876  .00012100  00000-0  56981-3 0  9997
2 30950  99.2153 219.4841 0036100  34.7461 325.6115 15.19156858632498
0 FENGYUN 1C DEB
1 30954U 99025BAU 18331.96413634 +.00000148 +00000-0 +10622-3 0  9995
2 30954 098.5256 143.3888 0143001 272.3944 241.3953 14.05746525601893
0 FENGYUN 1C DEB
1 30956U 99025BAW 18331.58330142 +.00000216 +00000-0 +15349-3 0  9994
2 30956 098.9869 007.3358 0053480 028.3271 123.6240 14.07137967600798
0 FENGYUN 1C DEB
1 30956U 99025BAW 18332.57888369  .00000275  00000-0  18869-3 0  9998
2 30956  98.9868   8.3254 0053429  25.4977 126.9855 14.07138546601015
0 FENGYUN 1C DEB
1 30957U 99025BAX 18332.29463762  .00002744  00000-0  46644-3 0  9999
2 30957  99.0793 282.3150 0067307 252.5797 106.8039 14.68653540618301
0 FENGYUN 1C DEB
1 30957U 99025BAX 18331.40895326 +.00002797 +00000-0 +47529-3 0  9997
2 30957 099.0793 281.3322 0067386 255.3538 104.0187 14.68648741617964
0 FENGYUN 1C DEB
1 30958U 99025BAY 18331.15944847 +.00001432 +00000-0 +50516-3 0  9998
2 30958 097.9812 310.0828 0136772 132.6186 228.6629 14.30975230254581
0 FENGYUN 1C DEB
1 30971U 99025BBM 18331.20183639 +.00000225 +00000-0 +51150-4 0  9998
2 30971 099.1783 058.9474 0209570 052.7814 338.8203 14.54599041622094
0 FENGYUN 1C DEB
1 30971U 99025BBM 18332.23932365  .00000217  00000-0  49834-4 0  9997
2 30971  99.1782  60.0859 0209540  49.6714  11.6723 14.54599584622225
0 FENGYUN 1C DEB
1 30980U 99025BBW 18332.27819131  .00034698  00000-0  11098-2 0  9995
2 30980  98.8850 349.9522 0014952  17.4173 342.7574 15.32246773626509
0 FENGYUN 1C DEB
1 30980U 99025BBW 18330.25368411  .00029083  00000-0  93480-3 0  9999
2 30980  98.8845 347.5265 0015281  24.1880 336.0072 15.32126999626198
0 FENGYUN 1C DEB
1 30988U 99025BCE 18331.78329799 +.00001294 +00000-0 +14890-3 0  9994
2 30988 098.5332 092.8692 0312661 157.6410 203.8769 14.58335966617277
0 FENGYUN 1C DEB
1 30989U 99025BCF 18331.73057421 +.00000552 +00000-0 +36476-3 0  9990
2 30989 099.2322 341.8364 0102505 051.8408 309.1939 14.03421452598334
0 FENGYUN 1C DEB
1 30989U 99025BCF 18332.51479524  .00000514  00000-0  34162-3 0  9997
2 30989  99.2322 342.6322 0102511  49.6759 311.3307 14.03422347598370
0 FENGYUN 1C DEB
1 30994U 99025BCL 18331.56438237 +.00000031 +00000-0 +42400-4 0  9992
2 30994 098.9161 358.4905 0017314 258.3637 101.5591 14.10425174603162
0 FENGYUN 1C DEB
1 30994U 99025BCL 18332.55754208 -.00000007  00000-0  20805-4 0  9990
2 30994  98.9161 359.4753 0017362 255.4437 104.4808 14.10425310603461
0 FENGYUN 1C DEB
1 30996U 99025BCN 18331.90269285 +.00000301 +00000-0 +14280-3 0  9991
2 30996 099.0020 110.7635 0057060 174.8461 341.1968 14.26131603608396
0 FENGYUN 1C DEB
1 30996U 99025BCN 18332.37418696  .00000303  00000-0  14355-3 0  9990
2 30996  99.0021 111.2479 0057074 173.5128 241.8563 14.26131948608490
0 FENGYUN 1C DEB
1 30997U 99025BCP 18331.62121778 +.00000907 +00000-0 +25651-3 0  9991
2 30997 099.0126 217.0893 0065815 227.4965 162.0588 14.47091011613094
0 FENGYUN 1C DEB
1 30997U 99025BCP 18332.65811949  .00000881  00000-0  24934-3 0  9995
2 30997  99.0125 218.1928 0065771 224.3370 163.8962 14.47092845613485
0 FENGYUN 1C DEB
1 30999U 99025BCR 18332.30422946  .00000330  00000-0  97466-4 0  9994
2 30999  99.0495 279.3523 0139726  97.9160 263.7914 14.45209216616266
0 FENGYUN 1C DEB
1 31000U 99025BCS 18332.38008426  .00000204  00000-0  13263-3 0  9991
2 31000  97.5840  20.9119 0175803 324.8733  95.5030 14.03607263599181
0 FENGYUN 1C DEB
1 31001U 99025BCT 18331.93714869 +.00000240 +00000-0 +88651-4 0  9991
2 31001 099.3188 324.5120 0164361 084.2764 277.7133 14.35081480612647
0 FENGYUN 1C DEB
1 31002U 99025BCU 18331.01085998 +.00000267 +00000-0 +21400-3 0  9992
2 31002 099.1243 359.3996 0101360 231.1357 159.4161 13.97007370596669
0 FENGYUN 1C DEB
1 31002U 99025BCU 18332.54035723  .00000335  00000-0  26096-3 0  9994
2 31002  99.1242   0.9174 0101381 226.9280 291.6248 13.97008489596943
0 FENGYUN 1C DEB
1 31003U 99025BCV 18331.53949864 +.00000583 +00000-0 +34156-3 0  9994
2 31003 099.0150 008.7935 0047177 322.3087 037.4782 14.11767136601225
0 FENGYUN 1C DEB
1 31005U 99025BCX 18331.43035693 +.00000504 +00000-0 +48549-3 0  9995
2 31005 098.6009 304.6619 0195216 060.5907 065.5225 13.75906084588507
0 FENGYUN 1C DEB
1 31005U 99025BCX 18332.38216027  .00000513  00000-0  49380-3 0  9996
2 31005  98.6011 305.5220 0195251  58.0463 100.0420 13.75907085588870
0 FENGYUN 1C DEB
1 31007U 99025BCZ 18331.21774218 +.00000662 +00000-0 +25092-3 0  9999
2 31007 098.2012 064.8336 0105047 229.0256 130.1804 14.31176227611322
0 FENGYUN 1C DEB
1 31012U 99025BDE 18331.87625987 +.00000055 +00000-0 +40904-4 0  9991
2 31012 099.0083 114.1046 0085578 108.4085 044.2746 14.25781722610838
0 FENGYUN 1C DEB
1 31014U 99025BDG 18331.78383936 +.00000178 +00000-0 +15116-3 0  9990
2 31014 098.9013 011.2626 0090293 114.1788 315.3906 13.97560664599043
0 FENGYUN 1C DEB
1 31014U 99025BDG 18332.58781543  .00000121  00000-0  11176-3 0  9995
2 31014  98.9012  12.0417 0090281 111.9929  40.3391 13.97560977599150
0 FENGYUN 1C DEB
1 31015U 99025BDH 18332.39074005  .00002189  00000-0  27603-3 0  9991
2 31015  98.7334 262.2249 0096892   9.3186 114.3373 14.79926059624572
0 FENGYUN 1C DEB
1 31015U 99025BDH 18331.76467271 +.00002282 +00000-0 +28741-3 0  9990
2 31015 098.7334 261.5444 0096914 011.2713 018.8532 14.79923648624301
0 FENGYUN 1C DEB
1 31016U 99025BDJ 18331.75027149 +.00000066 +00000-0 +42364-4 0  9992
2 31016 098.6987 001.0480 0117158 258.2617 165.8369 14.27188123607601
0 FENGYUN 1C DEB
1 31018U 99025BDL 18331.00338017 +.00000631 +00000-0 +41807-3 0  9999
2 31018 099.1854 002.0075 0068617 104.0315 256.8492 14.04093732598592
0 FENGYUN 1C DEB
1 31018U 99025BDL 18332.00101101  .00000570  00000-0  38056-3 0  9996
2 31018  99.1853   3.0157 0068583 101.2807 259.6076 14.04095068598751
0 FENGYUN 1C DEB
1 31024U 99025BDS 18331.90790274 +.00000100 +00000-0 +70136-4 0  9991
2 31024 099.1858 127.5227 0077408 221.5288 137.9988 14.17855086602370
0 FENGYUN 1C DEB
1 31026U 99025BDU 18331.10893816 +.00000044 +00000-0 +73617-4 0  9995
2 31026 098.7957 060.2697 0135224 307.8103 170.8789 13.82269920324762
0 FENGYUN 1C DEB
1 31029U 99025BDX 18331.33109306 +.00000128 +00000-0 +64498-4 0  9997
2 31029 098.9284 109.6008 0094998 008.7005 049.2616 14.30156404609977
